NESS                    
1 58020U 23155E   26068.76452457  .00019469  00000+0  74047-3 0  9996
2 58020  97.5941 152.6141 0006891 179.8776 180.2465 15.26794015133307
STARLINK-35218          
1 66340U 25253X   26068.44467991  .00025579  00000+0  93548-3 0  9991
2 66340  43.0018 214.1773 0001283 267.9968  92.0736 15.27591897 20208
